{"type": "FeatureCollection", "features": [ {"type": "Feature", "properties": {"norad_id": 66347, "name": "STARLINK-35438", "group": "last-30-days", "lat": -26.228414575796553, "lon": -119.60616045376484, "alt_km": 416.47830406421144, "timestamp": "2025-12-05T05:43:13.894824+00:00", "meta": {"OBJECT_NAME": "STARLINK-35438", "OBJECT_ID": "2025-253AE", "EPOCH": "2025-12-04T13:18:57.528864", "MEAN_MOTION": 15.50539833, "ECCENTRICITY": 0.0001203, "INCLINATION": 43.0005, "RA_OF_ASC_NODE": 32.4757, "ARG_OF_PERICENTER": 280.616, "MEAN_ANOMALY": 79.4565, "EPHEMERIS_TYPE": 0, "CLASSIFICATION_TYPE": "U", "NORAD_CAT_ID": 66347, "ELEMENT_SET_NO": 999, "REV_AT_EPOCH": 566, "BSTAR": 0.0032727, "MEAN_MOTION_DOT": 0.00196269, "MEAN_MOTION_DDOT": 0}, "tle": {"line1": "1 66347U 25253AE  25338.55483251  .00196269  00000+0  32727-2 0  9992", "line2": "2 66347  43.0005  32.4757 0001203 280.6160  79.4565 15.50539833  5662"}}, "geometry": {"type": "Point", "coordinates": [-119.60616045376484, -26.228414575796553]}}, {"type": "Feature", "properties": {"norad_id": 66348, "name": "STARLINK-35849", "group": "last-30-days", "lat": 53.139219869367864, "lon": 42.570624556022665, "alt_km": 393.17391065510037, "timestamp": "2025-12-05T05:43:13.894835+00:00", "meta": {"OBJECT_NAME": "STARLINK-35849", "OBJECT_ID": "2025-254A", "EPOCH": "2025-12-04T18:00:02.000160", "MEAN_MOTION": 15.57502744, "ECCENTRICITY": 0.000137, "INCLINATION": 53.159, "RA_OF_ASC_NODE": 314.8588, "ARG_OF_PERICENTER": 97.7654, "MEAN_ANOMALY": 134.5744, "EPHEMERIS_TYPE": 0, "CLASSIFICATION_TYPE": "U", "NORAD_CAT_ID": 66348, "ELEMENT_SET_NO": 999, "REV_AT_EPOCH": 563, "BSTAR": -0.031113, "MEAN_MOTION_DOT": -0.02077728, "MEAN_MOTION_DDOT": 0}, "tle": {"line1": "1 66348U 25254A   25338.75002315 -.02077728  00000+0 -31113-1 0  9993", "line2": "2 66348  53.1590 314.8588 0001370  97.7654 134.5744 15.57502744  5630"}}, "geometry": {"type": "Point", "coordinates": [42.570624556022665, 53.139219869367864]}}, {"type": "Feature", "properties": {"norad_id": 66349, "name": "STARLINK-35848", "group": "last-30-days", "lat": 53.09438000272516, "lon": 45.76526172630378, "alt_km": 393.1729926390999, "timestamp": "2025-12-05T05:43:13.894846+00:00", "meta": {"OBJECT_NAME": "STARLINK-35848", "OBJECT_ID": "2025-254B", "EPOCH": "2025-12-04T18:00:02.000160", "MEAN_MOTION": 15.57502135, "ECCENTRICITY": 0.0001374, "INCLINATION": 53.159, "RA_OF_ASC_NODE": 314.8543, "ARG_OF_PERICENTER": 97.862, "MEAN_ANOMALY": 136.395, "EPHEMERIS_TYPE": 0, "CLASSIFICATION_TYPE": "U", "NORAD_CAT_ID": 66349, "ELEMENT_SET_NO": 999, "REV_AT_EPOCH": 563, "BSTAR": -0.031103, "MEAN_MOTION_DOT": -0.02077117, "MEAN_MOTION_DDOT": 0}, "tle": {"line1": "1 66349U 25254B   25338.75002315 -.02077117  00000+0 -31103-1 0  9995", "line2": "2 66349  53.1590 314.8543 0001374  97.8620 136.3950 15.57502135  5633"}}, "geometry": {"type": "Point", "coordinates": [45.76526172630378, 53.09438000272516]}}, {"type": "Feature", "properties": {"norad_id": 66350, "name": "STARLINK-35829", "group": "last-30-days", "lat": 52.964553808928905, "lon": 48.945719192967, "alt_km": 393.1688479040613, "timestamp": "2025-12-05T05:43:13.894857+00:00", "meta": {"OBJECT_NAME": "STARLINK-35829", "OBJECT_ID": "2025-254C", "EPOCH": "2025-12-04T18:00:02.000160", "MEAN_MOTION": 15.575007, "ECCENTRICITY": 0.000141, "INCLINATION": 53.1594, "RA_OF_ASC_NODE": 314.8504, "ARG_OF_PERICENTER": 102.7787, "MEAN_ANOMALY": 133.3958, "EPHEMERIS_TYPE": 0, "CLASSIFICATION_TYPE": "U", "NORAD_CAT_ID": 66350, "ELEMENT_SET_NO": 999, "REV_AT_EPOCH": 563, "BSTAR": -0.031072, "MEAN_MOTION_DOT": -0.0207517, "MEAN_MOTION_DDOT": 0}, "tle": {"line1": "1 66350U 25254C   25338.75002315 -.02075170  00000+0 -31072-1 0  9999", "line2": "2 66350  53.1594 314.8504 0001410 102.7787 133.3958 15.57500700  5638"}}, "geometry": {"type": "Point", "coordinates": [48.945719192967, 52.964553808928905]}}, {"type": "Feature", "properties": {"norad_id": 66351, "name": "STARLINK-35828", "group": "last-30-days", "lat": 52.7495602605684, "lon": 52.10205799784907, "alt_km": 393.2190970202919, "timestamp": "2025-12-05T05:43:13.894867+00:00", "meta": {"OBJECT_NAME": "STARLINK-35828", "OBJECT_ID": "2025-254D", "EPOCH": "2025-12-04T18:00:02.000160", "MEAN_MOTION": 15.57505657, "ECCENTRICITY": 0.0001385, "INCLINATION": 53.1592, "RA_OF_ASC_NODE": 314.8466, "ARG_OF_PERICENTER": 105.5689, "MEAN_ANOMALY": 132.5191, "EPHEMERIS_TYPE": 0, "CLASSIFICATION_TYPE": "U", "NORAD_CAT_ID": 66351, "ELEMENT_SET_NO": 999, "REV_AT_EPOCH": 560, "BSTAR": -0.031153, "MEAN_MOTION_DOT": -0.02080332, "MEAN_MOTION_DDOT": 0}, "tle": {"line1": "1 66351U 25254D   25338.75002315 -.02080332  00000+0 -31153-1 0  9996", "line2": "2 66351  53.1592 314.8466 0001385 105.5689 132.5191 15.57505657  5600"}}, "geometry": {"type": "Point", "coordinates": [52.10205799784907, 52.7495602605684]}}, {"type": "Feature", "properties": {"norad_id": 66352, "name": "STARLINK-35850", "group": "last-30-days", "lat": 52.45146149348104, "lon": 55.2242756259013, "alt_km": 393.3277539364917, "timestamp": "2025-12-05T05:43:13.894877+00:00", "meta": {"OBJECT_NAME": "STARLINK-35850", "OBJECT_ID": "2025-254E", "EPOCH": "2025-12-04T18:00:02.000160", "MEAN_MOTION": 15.575048, "ECCENTRICITY": 0.0001276, "INCLINATION": 53.1593, "RA_OF_ASC_NODE": 314.8424, "ARG_OF_PERICENTER": 101.8625, "MEAN_ANOMALY": 138.1439, "EPHEMERIS_TYPE": 0, "CLASSIFICATION_TYPE": "U", "NORAD_CAT_ID": 66352, "ELEMENT_SET_NO": 999, "REV_AT_EPOCH": 559, "BSTAR": -0.031148, "MEAN_MOTION_DOT": -0.02079913, "MEAN_MOTION_DDOT": 0}, "tle": {"line1": "1 66352U 25254E   25338.75002315 -.02079913  00000+0 -31148-1 0  9994", "line2": "2 66352  53.1593 314.8424 0001276 101.8625 138.1439 15.57504800  5598"}}, "geometry": {"type": "Point", "coordinates": [55.2242756259013, 52.45146149348104]}}, {"type": "Feature", "properties": {"norad_id": 66353, "name": "STARLINK-35869", "group": "last-30-days", "lat": 52.07251836466705, "lon": 58.29431934946739, "alt_km": 393.33916214286546, "timestamp": "2025-12-05T05:43:13.894888+00:00", "meta": {"OBJECT_NAME": "STARLINK-35869", "OBJECT_ID": "2025-254F", "EPOCH": "2025-12-04T18:00:02.000160", "MEAN_MOTION": 15.5750722, "ECCENTRICITY": 0.0001335, "INCLINATION": 53.1592, "RA_OF_ASC_NODE": 314.838, "ARG_OF_PERICENTER": 104.863, "MEAN_ANOMALY": 137.0579, "EPHEMERIS_TYPE": 0, "CLASSIFICATION_TYPE": "U", "NORAD_CAT_ID": 66353, "ELEMENT_SET_NO": 999, "REV_AT_EPOCH": 563, "BSTAR": -0.031183, "MEAN_MOTION_DOT": -0.02082219, "MEAN_MOTION_DDOT": 0}, "tle": {"line1": "1 66353U 25254F   25338.75002315 -.02082219  00000+0 -31183-1 0  9997", "line2": "2 66353  53.1592 314.8380 0001335 104.8630 137.0579 15.57507220  5631"}}, "geometry": {"type": "Point", "coordinates": [58.29431934946739, 52.07251836466705]}}, {"type": "Feature", "properties": {"norad_id": 66354, "name": "STARLINK-35895", "group": "last-30-days", "lat": -37.21996537736166, "lon": 167.65634658615113, "alt_km": 423.68943712586315, "timestamp": "2025-12-05T05:43:13.894899+00:00", "meta": {"OBJECT_NAME": "STARLINK-35895", "OBJECT_ID": "2025-254G", "EPOCH": "2025-12-04T18:00:02.000160", "MEAN_MOTION": 15.49222578, "ECCENTRICITY": 0.0001141, "INCLINATION": 53.1599, "RA_OF_ASC_NODE": 315.2776, "ARG_OF_PERICENTER": 77.4084, "MEAN_ANOMALY": 306.4835, "EPHEMERIS_TYPE": 0, "CLASSIFICATION_TYPE": "U", "NORAD_CAT_ID": 66354, "ELEMENT_SET_NO": 999, "REV_AT_EPOCH": 563, "BSTAR": 0.0014298, "MEAN_MOTION_DOT": 0.00079642, "MEAN_MOTION_DDOT": 0}, "tle": {"line1": "1 66354U 25254G   25338.75002315  .00079642  00000+0  14298-2 0  9999", "line2": "2 66354  53.1599 315.2776 0001141  77.4084 306.4835 15.49222578  5634"}}, "geometry": {"type": "Point", "coordinates": [167.65634658615113, -37.21996537736166]}}, {"type": "Feature", "properties": {"norad_id": 66355, "name": "STARLINK-35861", "group": "last-30-days", "lat": 51.08092177452162, "lon": 64.26016291271249, "alt_km": 393.48754372690655, "timestamp": "2025-12-05T05:43:13.894909+00:00", "meta": {"OBJECT_NAME": "STARLINK-35861", "OBJECT_ID": "2025-254H", "EPOCH": "2025-12-04T18:00:02.000160", "MEAN_MOTION": 15.57503447, "ECCENTRICITY": 0.0001317, "INCLINATION": 53.159, "RA_OF_ASC_NODE": 314.8296, "ARG_OF_PERICENTER": 101.3843, "MEAN_ANOMALY": 144.3734, "EPHEMERIS_TYPE": 0, "CLASSIFICATION_TYPE": "U", "NORAD_CAT_ID": 66355, "ELEMENT_SET_NO": 999, "REV_AT_EPOCH": 563, "BSTAR": -0.031132, "MEAN_MOTION_DOT": -0.02078869, "MEAN_MOTION_DDOT": 0}, "tle": {"line1": "1 66355U 25254H   25338.75002315 -.02078869  00000+0 -31132-1 0  9999", "line2": "2 66355  53.1590 314.8296 0001317 101.3843 144.3734 15.57503447  5636"}}, "geometry": {"type": "Point", "coordinates": [64.26016291271249, 51.08092177452162]}}, {"type": "Feature", "properties": {"norad_id": 66356, "name": "STARLINK-35851", "group": "last-30-days", "lat": 50.47515971229912, "lon": 67.13641125376411, "alt_km": 393.5500329813085, "timestamp": "2025-12-05T05:43:13.894919+00:00", "meta": {"OBJECT_NAME": "STARLINK-35851", "OBJECT_ID": "2025-254J", "EPOCH": "2025-12-04T18:00:02.000160", "MEAN_MOTION": 15.57503633, "ECCENTRICITY": 0.0001347, "INCLINATION": 53.1591, "RA_OF_ASC_NODE": 314.8252, "ARG_OF_PERICENTER": 103.8655, "MEAN_ANOMALY": 143.8082, "EPHEMERIS_TYPE": 0, "CLASSIFICATION_TYPE": "U", "NORAD_CAT_ID": 66356, "ELEMENT_SET_NO": 999, "REV_AT_EPOCH": 563, "BSTAR": -0.03113, "MEAN_MOTION_DOT": -0.02078806, "MEAN_MOTION_DDOT": 0}, "tle": {"line1": "1 66356U 25254J   25338.75002315 -.02078806  00000+0 -31130-1 0  9999", "line2": "2 66356  53.1591 314.8252 0001347 103.8655 143.8082 15.57503633  5638"}}, "geometry": {"type": "Point", "coordinates": [67.13641125376411, 50.47515971229912]}}]}